NORAD_CAT_ID,OBJECT_NAME,OBJECT_TYPE,EPOCH,MEAN_MOTION,ECCENTRICITY,INCLINATION,RA_OF_ASC_NODE,ARG_OF_PERICENTER,MEAN_ANOMALY,BSTAR,MEAN_MOTION_DOT,MEAN_MOTION_DDOT,TLE_LINE0,TLE_LINE1,TLE_LINE2,SEMIMAJOR_AXIS,PERIOD,APOGEE,PERIGEE,DECAYED
53430.0,STARLINK-4538,PAYLOAD,2024-07-01 11:03:30,15.08852511,0.0002357,53.2149,350.5225,76.3808,283.7446,0.00077484,0.00012069,0.0,0 STARLINK-4538,1 53430U 22097AU  24183.46077120  .00012069  00000-0  77484-3 0  9991,2 53430  53.2149 350.5225 0002357  76.3808 283.7446 15.08852511105277,6917.842,95.437,541.338,538.077,0.0
53430.0,STARLINK-4538,PAYLOAD,2024-07-01 20:35:49,15.08842267,0.0001409,53.2145,348.7371,78.9283,281.1868,0.00036879,5.587e-05,0.0,0 STARLINK-4538,1 53430U 22097AU  24183.85821043  .00005587  00000-0  36879-3 0  9995,2 53430  53.2145 348.7371 0001409  78.9283 281.1868 15.08842267105330,6917.873,95.437,540.713,538.764,0.0
53430.0,STARLINK-4538,PAYLOAD,2024-07-02 14:05:03,15.08844557,0.0001835,53.2166,345.4617,128.4916,231.6241,0.00046311,7.091e-05,0.0,0 STARLINK-4538,1 53430U 22097AU  24184.58684946  .00007091  00000-0  46311-3 0  9999,2 53430  53.2166 345.4617 0001835 128.4916 231.6241 15.08844557105909,6917.866,95.437,541.001,538.462,0.0
53430.0,STARLINK-4538,PAYLOAD,2024-07-02 17:15:50,15.08837815,0.0001498,53.2157,344.8696,100.1308,259.9853,0.0001275,1.742e-05,0.0,0 STARLINK-4538,1 53430U 22097AU  24184.71933226  .00001742  00000-0  12750-3 0  9999,2 53430  53.2157 344.8696 0001498 100.1308 259.9853 15.08837815105468,6917.887,95.438,540.788,538.716,0.0
53430.0,STARLINK-4538,PAYLOAD,2024-07-03 17:06:37,15.08842866,0.0001092,53.2161,340.4114,85.74,274.3717,0.00024478,3.61e-05,0.0,0 STARLINK-4538,1 53430U 22097AU  24185.71293307  .00003610  00000-0  24478-3 0  9995,2 53430  53.2161 340.4114 0001092  85.7400 274.3717 15.08842866106071,6917.872,95.437,540.492,538.981,0.0
53430.0,STARLINK-4538,PAYLOAD,2024-07-04 13:46:38,15.08843197,0.0001188,53.2164,336.5455,84.1233,275.9895,-0.00014291,-2.562e-05,0.0,0 STARLINK-4538,1 53430U 22097AU  24186.57405129 -.00002562  00000-0 -14291-3 0  9996,2 53430  53.2164 336.5455 0001188  84.1233 275.9895 15.08843197105746,6917.871,95.437,540.557,538.914,0.0
53430.0,STARLINK-4538,PAYLOAD,2024-07-04 16:57:24,15.08836751,0.0001042,53.216,335.9491,88.9542,271.1569,0.00014486,2.018e-05,0.0,0 STARLINK-4538,1 53430U 22097AU  24186.70653559  .00002018  00000-0  14486-3 0  9993,2 53430  53.2160 335.9491 0001042  88.9542 271.1569 15.08836751106227,6917.89,95.438,540.476,539.034,0.0
53430.0,STARLINK-4538,PAYLOAD,2024-07-05 10:26:39,15.08834033,0.0001215,53.2163,332.6783,85.8962,274.2169,-2.3548e-05,-6.63e-06,0.0,0 STARLINK-4538,1 53430U 22097AU  24187.43517590 -.00000663  00000-0 -23548-4 0  9994,2 53430  53.2163 332.6783 0001215  85.8962 274.2169 15.08834033105873,6917.899,95.438,540.604,538.923,0.0
53430.0,STARLINK-4538,PAYLOAD,2024-07-05 13:37:25,15.08835804,0.0001321,53.2165,332.0839,81.4432,278.671,-7.9483e-06,-4.14e-06,0.0,0 STARLINK-4538,1 53430U 22097AU  24187.56765568 -.00000414  00000-0 -79483-5 0  9992,2 53430  53.2165 332.0839 0001321  81.4432 278.6710 15.08835804106354,6917.893,95.438,540.672,538.844,0.0
53430.0,STARLINK-4538,PAYLOAD,2024-07-05 16:48:11,15.08839294,0.0001152,53.2181,331.4916,86.99,273.1223,0.00014617,2.039e-05,0.0,0 STARLINK-4538,1 53430U 22097AU  24187.70013371  .00002039  00000-0  14617-3 0  9995,2 53430  53.2181 331.4916 0001152  86.9900 273.1223 15.08839294106371,6917.883,95.438,540.544,538.951,0.0
53430.0,STARLINK-4538,PAYLOAD,2024-07-06 02:20:29,15.08856105,0.0001145,53.2179,329.7045,81.6424,278.4698,0.00027948,4.165e-05,0.0,0 STARLINK-4538,1 53430U 22097AU  24188.09756334  .00004165  00000-0  27948-3 0  9994,2 53430  53.2179 329.7045 0001145  81.6424 278.4698 15.08856105105975,6917.831,95.437,540.488,538.904,0.0
53430.0,STARLINK-4538,PAYLOAD,2024-07-06 13:28:12,15.08834735,0.0002607,53.2166,327.6239,83.0077,277.1212,2.5259e-05,1.13e-06,0.0,0 STARLINK-4538,1 53430U 22097AU  24188.56125912  .00000113  00000-0  25259-4 0  9991,2 53430  53.2166 327.6239 0002607  83.0077 277.1212 15.08834735106049,6917.896,95.438,541.565,537.958,0.0
53430.0,STARLINK-4538,PAYLOAD,2024-07-06 19:49:45,15.08834137,0.0001654,53.2169,326.4326,75.1126,285.0049,8.2842e-07,-2.75e-06,0.0,0 STARLINK-4538,1 53430U 22097AU  24188.82621681 -.00000275  00000-0  82842-6 0  9997,2 53430  53.2169 326.4326 0001654  75.1126 285.0049 15.08834137106541,6917.898,95.438,540.908,538.619,0.0
53430.0,STARLINK-4538,PAYLOAD,2024-07-07 08:32:50,15.08833273,0.0001482,53.2172,324.0561,80.0398,280.0762,2.6242e-05,1.3e-06,0.0,0 STARLINK-4538,1 53430U 22097AU  24189.35613681  .00000130  00000-0  26242-4 0  9996,2 53430  53.2172 324.0561 0001482  80.0398 280.0762 15.08833273106621,6917.901,95.438,540.791,538.741,0.0
53430.0,STARLINK-4538,PAYLOAD,2024-07-07 18:05:09,15.0883892,0.0001749,53.2164,322.2709,77.4801,282.6387,0.00013621,1.88e-05,0.0,0 STARLINK-4538,1 53430U 22097AU  24189.75357882  .00001880  00000-0  13621-3 0  9997,2 53430  53.2164 322.2709 0001749  77.4801 282.6387 15.08838920106222,6917.884,95.438,540.959,538.539,0.0
53430.0,STARLINK-4538,PAYLOAD,2024-07-08 13:09:47,15.0882583,0.0001901,53.2202,318.6958,111.8707,248.2487,6.4532e-05,7.39e-06,0.0,0 STARLINK-4538,1 53430U 22097AU  24190.54847148  .00000739  00000-0  64532-4 0  9995,2 53430  53.2202 318.6958 0001901 111.8707 248.2487 15.08825830106346,6917.924,95.438,541.104,538.474,0.0
53430.0,STARLINK-4538,PAYLOAD,2024-07-08 14:45:10,15.08841471,0.0001214,53.2169,318.4053,96.5918,263.5213,0.00038829,5.897e-05,0.0,0 STARLINK-4538,1 53430U 22097AU  24190.61470902  .00005897  00000-0  38829-3 0  9992,2 53430  53.2169 318.4053 0001214  96.5918 263.5213 15.08841471106810,6917.876,95.437,540.581,538.901,0.0
53430.0,STARLINK-4538,PAYLOAD,2024-07-09 14:35:57,15.08862068,0.0001254,53.2164,313.9455,92.8416,267.272,0.000617,9.551e-05,0.0,0 STARLINK-4538,1 53430U 22097AU  24191.60830046  .00009551  00000-0  61700-3 0  9996,2 53430  53.2164 313.9455 0001254  92.8416 267.2720 15.08862068106962,6917.813,95.436,540.545,538.81,0.0
53430.0,STARLINK-4538,PAYLOAD,2024-07-09 17:46:43,15.08870957,0.000145,53.2158,313.3484,99.9454,260.1701,0.0006027,9.325e-05,0.0,0 STARLINK-4538,1 53430U 22097AU  24191.74077552  .00009325  00000-0  60270-3 0  9996,2 53430  53.2158 313.3484 0001450  99.9454 260.1701 15.08870957106528,6917.786,95.436,540.654,538.648,0.0
53430.0,STARLINK-4538,PAYLOAD,2024-07-10 11:15:57,15.08839632,0.0001415,53.2167,310.0779,110.1509,249.9636,-0.00046624,-7.7e-05,0.0,0 STARLINK-4538,1 53430U 22097AU  24192.46941353 -.00007700  00000-0 -46624-3 0  9999,2 53430  53.2167 310.0779 0001415 110.1509 249.9636 15.08839632106636,6917.882,95.438,540.725,538.768,0.0
53430.0,STARLINK-4538,PAYLOAD,2024-07-10 14:26:43,15.08845898,0.0001671,53.217,309.4827,109.7953,250.3219,-0.00020594,-3.565e-05,0.0,0 STARLINK-4538,1 53430U 22097AU  24192.60189235 -.00003565  00000-0 -20594-3 0  9991,2 53430  53.2170 309.4827 0001671 109.7953 250.3219 15.08845898107115,6917.862,95.437,540.883,538.571,0.0
53430.0,STARLINK-4538,PAYLOAD,2024-07-10 17:37:29,15.08848186,0.0001835,53.2166,308.8877,107.8747,252.2446,-6.2562e-05,-1.284e-05,0.0,0 STARLINK-4538,1 53430U 22097AU  24192.73437196 -.00001284  00000-0 -62562-4 0  9995,2 53430  53.2166 308.8877 0001835 107.8747 252.2446 15.08848186107138,6917.855,95.437,540.99,538.451,0.0
53430.0,STARLINK-4538,PAYLOAD,2024-07-11 14:17:30,15.08840498,0.0001273,53.2177,305.0211,107.0134,253.0997,-0.00012584,-2.29e-05,0.0,0 STARLINK-4538,1 53430U 22097AU  24193.59549321 -.00002290  00000-0 -12584-3 0  9990,2 53430  53.2177 305.0211 0001273 107.0134 253.0997 15.08840498107261,6917.879,95.438,540.625,538.863,0.0
53430.0,STARLINK-4538,PAYLOAD,2024-07-12 14:08:18,15.08825753,0.0001063,53.2178,300.5638,93.1176,266.9938,0.00014103,1.957e-05,0.0,0 STARLINK-4538,1 53430U 22097AU  24194.58910582  .00001957  00000-0  14103-3 0  9997,2 53430  53.2178 300.5638 0001063  93.1176 266.9938 15.08825753106953,6917.924,95.438,540.524,539.054,0.0
53430.0,STARLINK-4538,PAYLOAD,2024-07-12 23:40:36,15.08843397,0.000151,53.2174,298.7793,99.7814,260.3349,0.00012088,1.637e-05,0.0,0 STARLINK-4538,1 53430U 22097AU  24194.98653579  .00001637  00000-0  12088-3 0  9996,2 53430  53.2174 298.7793 0001510  99.7814 260.3349 15.08843397107013,6917.87,95.437,540.78,538.69,0.0
53430.0,STARLINK-4538,PAYLOAD,2024-07-13 13:59:05,15.08831162,0.0001279,53.2184,296.1063,100.9535,259.1601,9.8913e-05,1.286e-05,0.0,0 STARLINK-4538,1 53430U 22097AU  24195.58270655  .00001286  00000-0  98913-4 0  9995,2 53430  53.2184 296.1063 0001279 100.9535 259.1601 15.08831162107107,6917.907,95.438,540.657,538.888,0.0
53430.0,STARLINK-4538,PAYLOAD,2024-07-13 23:31:23,15.08846266,0.0001184,53.2178,294.3148,62.9368,297.1745,0.00018991,2.736e-05,0.0,0 STARLINK-4538,1 53430U 22097AU  24195.98013529  .00002736  00000-0  18991-3 0  9992,2 53430  53.2178 294.3148 0001184  62.9368 297.1745 15.08846266107168,6917.861,95.437,540.545,538.907,0.0
53430.0,STARLINK-4538,PAYLOAD,2024-07-14 12:14:29,15.08834144,0.0001503,53.2184,291.9429,89.7883,270.3281,0.00011309,1.512e-05,0.0,0 STARLINK-4538,1 53430U 22097AU  24196.51006741  .00001512  00000-0  11309-3 0  9997,2 53430  53.2184 291.9429 0001503  89.7883 270.3281 15.08834144107243,6917.898,95.438,540.803,538.724,0.0
53430.0,STARLINK-4538,PAYLOAD,2024-07-14 13:49:52,15.08844515,0.0001285,53.2171,291.6414,81.491,278.6228,0.00018185,2.608e-05,0.0,0 STARLINK-4538,1 53430U 22097AU  24196.57629873  .00002608  00000-0  18185-3 0  9996,2 53430  53.2171 291.6414 0001285  81.4910 278.6228 15.08844515107714,6917.867,95.437,540.621,538.843,0.0
53430.0,STARLINK-4538,PAYLOAD,2024-07-14 15:25:15,15.08846361,0.0001253,53.217,291.3435,86.6295,273.4841,0.00019505,2.818e-05,0.0,0 STARLINK-4538,1 53430U 22097AU  24196.64253713  .00002818  00000-0  19505-3 0  9990,2 53430  53.2170 291.3435 0001253  86.6295 273.4841 15.08846361107266,6917.861,95.437,540.593,538.859,0.0
